KUIPER-00095            
1 65134U 25171C   25312.16668980 -.00367482  00000+0 -12305-1 0  9995
2 65134  51.8784 336.8581 0005095  74.1245 138.9511 15.31946204  5110
KUIPER-00096            
1 65135U 25171D   25312.16668980 -.00288807  00000+0 -16676-1 0  9994
2 65135  51.8898 338.4167 0011738  87.3687  80.6452 15.13180366  4803
KUIPER-00097            
1 65136U 25171E   25312.16668980 -.01863104  00000+0 -13350+0 0  9999
2 65136  51.8928 340.1005 0009409  98.0826 253.0856 15.07505782  5110
KUIPER-00098            
1 65137U 25171F   25312.16668980 -.01079153  00000+0 -98022-1 0  9994
2 65137  51.8913 341.3012 0007775  90.4739  96.8873 14.97908060  4103
KUIPER-00099            
1 65138U 25171G   25312.16668980 -.00656210  00000+0 -27521-1 0  9995
2 65138  51.8824 337.1281 0007651  92.2750  26.7843 15.25443886  5395
KUIPER-00100            
1 65139U 25171H   25312.16668980 -.00334610  00000+0 -11528-1 0  9993
2 65139  51.8786 336.7463 0005201  61.3281 226.7427 15.30895417  2816
KUIPER-00102            
1 65140U 25171J   25312.16668980 -.00709145  00000+0 -28439-1 0  9993
2 65140  51.8807 337.2157 0008797  77.3209 319.7204 15.27099806  5046
KUIPER-00103            
1 65141U 25171K   25311.80670557  .00005563  00000+0  75945-3 0  9994
2 65141  51.8992 349.5510 0007011  92.7683 267.4082 14.79854771 14663
