<?xml version="1.0" encoding="UTF-8"?>
<ndm xmlns:xsi="http://www.w3.org/2001/XMLSchema-instance" xsi:noNamespaceSchemaLocation="https://sanaregistry.org/r/ndmxml_unqualified/ndmxml-2.0.0-master-2.0.xsd">
<omm id="CCSDS_OMM_VERS" version="2.0">
<header><CREATION_DATE/><ORIGINATOR/></header><body><segment><metadata><OBJECT_NAME>KUIPER-00095</OBJECT_NAME><OBJECT_ID>2025-171C</OBJECT_ID><CENTER_NAME>EARTH</CENTER_NAME><REF_FRAME>TEME</REF_FRAME><TIME_SYSTEM>UTC</TIME_SYSTEM><MEAN_ELEMENT_THEORY>SGP4</MEAN_ELEMENT_THEORY></metadata><data><meanElements><EPOCH>2025-11-08T04:00:01.998720</EPOCH><MEAN_MOTION>15.31946204</MEAN_MOTION><ECCENTRICITY>.0005095</ECCENTRICITY><INCLINATION>51.8784</INCLINATION><RA_OF_ASC_NODE>336.8581</RA_OF_ASC_NODE><ARG_OF_PERICENTER>74.1245</ARG_OF_PERICENTER><MEAN_ANOMALY>138.9511</MEAN_ANOMALY></meanElements><tleParameters><EPHEMERIS_TYPE>0</EPHEMERIS_TYPE><CLASSIFICATION_TYPE>U</CLASSIFICATION_TYPE><NORAD_CAT_ID>65134</NORAD_CAT_ID><ELEMENT_SET_NO>999</ELEMENT_SET_NO><REV_AT_EPOCH>511</REV_AT_EPOCH><BSTAR>-.12305E-1</BSTAR><MEAN_MOTION_DOT>-.367482E-2</MEAN_MOTION_DOT><MEAN_MOTION_DDOT>0</MEAN_MOTION_DDOT></tleParameters></data></segment></body></omm>
<omm id="CCSDS_OMM_VERS" version="2.0">
<header><CREATION_DATE/><ORIGINATOR/></header><body><segment><metadata><OBJECT_NAME>KUIPER-00096</OBJECT_NAME><OBJECT_ID>2025-171D</OBJECT_ID><CENTER_NAME>EARTH</CENTER_NAME><REF_FRAME>TEME</REF_FRAME><TIME_SYSTEM>UTC</TIME_SYSTEM><MEAN_ELEMENT_THEORY>SGP4</MEAN_ELEMENT_THEORY></metadata><data><meanElements><EPOCH>2025-11-08T04:00:01.998720</EPOCH><MEAN_MOTION>15.13180366</MEAN_MOTION><ECCENTRICITY>.0011738</ECCENTRICITY><INCLINATION>51.8898</INCLINATION><RA_OF_ASC_NODE>338.4167</RA_OF_ASC_NODE><ARG_OF_PERICENTER>87.3687</ARG_OF_PERICENTER><MEAN_ANOMALY>80.6452</MEAN_ANOMALY></meanElements><tleParameters><EPHEMERIS_TYPE>0</EPHEMERIS_TYPE><CLASSIFICATION_TYPE>U</CLASSIFICATION_TYPE><NORAD_CAT_ID>65135</NORAD_CAT_ID><ELEMENT_SET_NO>999</ELEMENT_SET_NO><REV_AT_EPOCH>480</REV_AT_EPOCH><BSTAR>-.16676E-1</BSTAR><MEAN_MOTION_DOT>-.288807E-2</MEAN_MOTION_DOT><MEAN_MOTION_DDOT>0</MEAN_MOTION_DDOT></tleParameters></data></segment></body></omm>
<omm id="CCSDS_OMM_VERS" version="2.0">
<header><CREATION_DATE/><ORIGINATOR/></header><body><segment><metadata><OBJECT_NAME>KUIPER-00097</OBJECT_NAME><OBJECT_ID>2025-171E</OBJECT_ID><CENTER_NAME>EARTH</CENTER_NAME><REF_FRAME>TEME</REF_FRAME><TIME_SYSTEM>UTC</TIME_SYSTEM><MEAN_ELEMENT_THEORY>SGP4</MEAN_ELEMENT_THEORY></metadata><data><meanElements><EPOCH>2025-11-08T04:00:01.998720</EPOCH><MEAN_MOTION>15.07505782</MEAN_MOTION><ECCENTRICITY>.0009409</ECCENTRICITY><INCLINATION>51.8928</INCLINATION><RA_OF_ASC_NODE>340.1005</RA_OF_ASC_NODE><ARG_OF_PERICENTER>98.0826</ARG_OF_PERICENTER><MEAN_ANOMALY>253.0856</MEAN_ANOMALY></meanElements><tleParameters><EPHEMERIS_TYPE>0</EPHEMERIS_TYPE><CLASSIFICATION_TYPE>U</CLASSIFICATION_TYPE><NORAD_CAT_ID>65136</NORAD_CAT_ID><ELEMENT_SET_NO>999</ELEMENT_SET_NO><REV_AT_EPOCH>511</REV_AT_EPOCH><BSTAR>-.1335E+0</BSTAR><MEAN_MOTION_DOT>-.1863104E-1</MEAN_MOTION_DOT><MEAN_MOTION_DDOT>0</MEAN_MOTION_DDOT></tleParameters></data></segment></body></omm>
<omm id="CCSDS_OMM_VERS" version="2.0">
<header><CREATION_DATE/><ORIGINATOR/></header><body><segment><metadata><OBJECT_NAME>KUIPER-00098</OBJECT_NAME><OBJECT_ID>2025-171F</OBJECT_ID><CENTER_NAME>EARTH</CENTER_NAME><REF_FRAME>TEME</REF_FRAME><TIME_SYSTEM>UTC</TIME_SYSTEM><MEAN_ELEMENT_THEORY>SGP4</MEAN_ELEMENT_THEORY></metadata><data><meanElements><EPOCH>2025-11-08T04:00:01.998720</EPOCH><MEAN_MOTION>14.97908060</MEAN_MOTION><ECCENTRICITY>.0007775</ECCENTRICITY><INCLINATION>51.8913</INCLINATION><RA_OF_ASC_NODE>341.3012</RA_OF_ASC_NODE><ARG_OF_PERICENTER>90.4739</ARG_OF_PERICENTER><MEAN_ANOMALY>96.8873</MEAN_ANOMALY></meanElements><tleParameters><EPHEMERIS_TYPE>0</EPHEMERIS_TYPE><CLASSIFICATION_TYPE>U</CLASSIFICATION_TYPE><NORAD_CAT_ID>65137</NORAD_CAT_ID><ELEMENT_SET_NO>999</ELEMENT_SET_NO><REV_AT_EPOCH>410</REV_AT_EPOCH><BSTAR>-.98022E-1</BSTAR><MEAN_MOTION_DOT>-.1079153E-1</MEAN_MOTION_DOT><MEAN_MOTION_DDOT>0</MEAN_MOTION_DDOT></tleParameters></data></segment></body></omm>
<omm id="CCSDS_OMM_VERS" version="2.0">
<header><CREATION_DATE/><ORIGINATOR/></header><body><segment><metadata><OBJECT_NAME>KUIPER-00099</OBJECT_NAME><OBJECT_ID>2025-171G</OBJECT_ID><CENTER_NAME>EARTH</CENTER_NAME><REF_FRAME>TEME</REF_FRAME><TIME_SYSTEM>UTC</TIME_SYSTEM><MEAN_ELEMENT_THEORY>SGP4</MEAN_ELEMENT_THEORY></metadata><data><meanElements><EPOCH>2025-11-08T04:00:01.998720</EPOCH><MEAN_MOTION>15.25443886</MEAN_MOTION><ECCENTRICITY>.0007651</ECCENTRICITY><INCLINATION>51.8824</INCLINATION><RA_OF_ASC_NODE>337.1281</RA_OF_ASC_NODE><ARG_OF_PERICENTER>92.2750</ARG_OF_PERICENTER><MEAN_ANOMALY>26.7843</MEAN_ANOMALY></meanElements><tleParameters><EPHEMERIS_TYPE>0</EPHEMERIS_TYPE><CLASSIFICATION_TYPE>U</CLASSIFICATION_TYPE><NORAD_CAT_ID>65138</NORAD_CAT_ID><ELEMENT_SET_NO>999</ELEMENT_SET_NO><REV_AT_EPOCH>539</REV_AT_EPOCH><BSTAR>-.27521E-1</BSTAR><MEAN_MOTION_DOT>-.65621E-2</MEAN_MOTION_DOT><MEAN_MOTION_DDOT>0</MEAN_MOTION_DDOT></tleParameters></data></segment></body></omm>
<omm id="CCSDS_OMM_VERS" version="2.0">
<header><CREATION_DATE/><ORIGINATOR/></header><body><segment><metadata><OBJECT_NAME>KUIPER-00100</OBJECT_NAME><OBJECT_ID>2025-171H</OBJECT_ID><CENTER_NAME>EARTH</CENTER_NAME><REF_FRAME>TEME</REF_FRAME><TIME_SYSTEM>UTC</TIME_SYSTEM><MEAN_ELEMENT_THEORY>SGP4</MEAN_ELEMENT_THEORY></metadata><data><meanElements><EPOCH>2025-11-08T04:00:01.998720</EPOCH><MEAN_MOTION>15.30895417</MEAN_MOTION><ECCENTRICITY>.0005201</ECCENTRICITY><INCLINATION>51.8786</INCLINATION><RA_OF_ASC_NODE>336.7463</RA_OF_ASC_NODE><ARG_OF_PERICENTER>61.3281</ARG_OF_PERICENTER><MEAN_ANOMALY>226.7427</MEAN_ANOMALY></meanElements><tleParameters><EPHEMERIS_TYPE>0</EPHEMERIS_TYPE><CLASSIFICATION_TYPE>U</CLASSIFICATION_TYPE><NORAD_CAT_ID>65139</NORAD_CAT_ID><ELEMENT_SET_NO>999</ELEMENT_SET_NO><REV_AT_EPOCH>281</REV_AT_EPOCH><BSTAR>-.11528E-1</BSTAR><MEAN_MOTION_DOT>-.33461E-2</MEAN_MOTION_DOT><MEAN_MOTION_DDOT>0</MEAN_MOTION_DDOT></tleParameters></data></segment></body></omm>
<omm id="CCSDS_OMM_VERS" version="2.0">
<header><CREATION_DATE/><ORIGINATOR/></header><body><segment><metadata><OBJECT_NAME>KUIPER-00102</OBJECT_NAME><OBJECT_ID>2025-171J</OBJECT_ID><CENTER_NAME>EARTH</CENTER_NAME><REF_FRAME>TEME</REF_FRAME><TIME_SYSTEM>UTC</TIME_SYSTEM><MEAN_ELEMENT_THEORY>SGP4</MEAN_ELEMENT_THEORY></metadata><data><meanElements><EPOCH>2025-11-08T04:00:01.998720</EPOCH><MEAN_MOTION>15.27099806</MEAN_MOTION><ECCENTRICITY>.0008797</ECCENTRICITY><INCLINATION>51.8807</INCLINATION><RA_OF_ASC_NODE>337.2157</RA_OF_ASC_NODE><ARG_OF_PERICENTER>77.3209</ARG_OF_PERICENTER><MEAN_ANOMALY>319.7204</MEAN_ANOMALY></meanElements><tleParameters><EPHEMERIS_TYPE>0</EPHEMERIS_TYPE><CLASSIFICATION_TYPE>U</CLASSIFICATION_TYPE><NORAD_CAT_ID>65140</NORAD_CAT_ID><ELEMENT_SET_NO>999</ELEMENT_SET_NO><REV_AT_EPOCH>504</REV_AT_EPOCH><BSTAR>-.28439E-1</BSTAR><MEAN_MOTION_DOT>-.709145E-2</MEAN_MOTION_DOT><MEAN_MOTION_DDOT>0</MEAN_MOTION_DDOT></tleParameters></data></segment></body></omm>
<omm id="CCSDS_OMM_VERS" version="2.0">
<header><CREATION_DATE/><ORIGINATOR/></header><body><segment><metadata><OBJECT_NAME>KUIPER-00103</OBJECT_NAME><OBJECT_ID>2025-171K</OBJECT_ID><CENTER_NAME>EARTH</CENTER_NAME><REF_FRAME>TEME</REF_FRAME><TIME_SYSTEM>UTC</TIME_SYSTEM><MEAN_ELEMENT_THEORY>SGP4</MEAN_ELEMENT_THEORY></metadata><data><meanElements><EPOCH>2025-11-07T19:21:39.361248</EPOCH><MEAN_MOTION>14.79854771</MEAN_MOTION><ECCENTRICITY>.0007011</ECCENTRICITY><INCLINATION>51.8992</INCLINATION><RA_OF_ASC_NODE>349.5510</RA_OF_ASC_NODE><ARG_OF_PERICENTER>92.7683</ARG_OF_PERICENTER><MEAN_ANOMALY>267.4082</MEAN_ANOMALY></meanElements><tleParameters><EPHEMERIS_TYPE>0</EPHEMERIS_TYPE><CLASSIFICATION_TYPE>U</CLASSIFICATION_TYPE><NORAD_CAT_ID>65141</NORAD_CAT_ID><ELEMENT_SET_NO>999</ELEMENT_SET_NO><REV_AT_EPOCH>1466</REV_AT_EPOCH><BSTAR>.75945E-3</BSTAR><MEAN_MOTION_DOT>.5563E-4</MEAN_MOTION_DOT><MEAN_MOTION_DDOT>0</MEAN_MOTION_DDOT></tleParameters></data></segment></body></omm>

</ndm>
